{
  "norad_id": 59463,
  "name": "STARLINK-31364",
  "history": [
    {
      "epoch": "2026-03-28T20:09:06.707808",
      "apogee_km": 483.9382780001806,
      "perigee_km": 482.19018115090876,
      "latitude_deg": -36.69788107512807,
      "longitude_deg": -153.09254688001238,
      "semi_major_axis_km": 6861.201229575544,
      "eccentricity": 0.00012739,
      "inclination_deg": 43.002,
      "raan_deg": 282.7214,
      "arg_perigee_deg": 278.5465,
      "mean_anomaly_deg": 81.5242,
      "mean_motion_rev_day": 15.27574946
    }
  ]
}